{"type": "FeatureCollection", "features": [ {"type": "Feature", "properties": {"norad_id": 34031, "name": "COSMOS 2251 DEB", "group": "cosmos-2251-debris", "lat": -9.218750657822559, "lon": -31.262314923565167, "alt_km": 694.5978350971682, "timestamp": "2025-12-07T07:31:36.691490+00:00", "meta": {"OBJECT_NAME": "COSMOS 2251 DEB", "OBJECT_ID": "1993-036HS", "EPOCH": "2025-12-06T21:21:38.412288", "MEAN_MOTION": 14.59578909, "ECCENTRICITY": 0.00229917, "INCLINATION": 74.0122, "RA_OF_ASC_NODE": 146.8792, "ARG_OF_PERICENTER": 267.4952, "MEAN_ANOMALY": 217.3913, "EPHEMERIS_TYPE": 0, "CLASSIFICATION_TYPE": "U", "NORAD_CAT_ID": 34031, "ELEMENT_SET_NO": 999, "REV_AT_EPOCH": 88480, "BSTAR": 0.0022461598, "MEAN_MOTION_DOT": 0.00010707, "MEAN_MOTION_DDOT": 0}, "tle": {"line1": "1 34031U 93036HS  25340.89002792  .00010707  00000+0  22462-2 0  9995", "line2": "2 34031  74.0122 146.8792 0022991 267.4952 217.3913 14.59578909884805"}}, "geometry": {"type": "Point", "coordinates": [-31.262314923565167, -9.218750657822559]}}, {"type": "Feature", "properties": {"norad_id": 34035, "name": "COSMOS 2251 DEB", "group": "cosmos-2251-debris", "lat": 34.01095838777471, "lon": 168.22817881999632, "alt_km": 741.9762027525794, "timestamp": "2025-12-07T07:31:36.691501+00:00", "meta": {"OBJECT_NAME": "COSMOS 2251 DEB", "OBJECT_ID": "1993-036HW", "EPOCH": "2025-12-06T19:31:18.955776", "MEAN_MOTION": 14.51829858, "ECCENTRICITY": 0.00443639, "INCLINATION": 74.0656, "RA_OF_ASC_NODE": 0.2834, "ARG_OF_PERICENTER": 3.1416, "MEAN_ANOMALY": 47.5785, "EPHEMERIS_TYPE": 0, "CLASSIFICATION_TYPE": "U", "NORAD_CAT_ID": 34035, "ELEMENT_SET_NO": 999, "REV_AT_EPOCH": 87880, "BSTAR": 0.0025553653, "MEAN_MOTION_DOT": 0.00010406, "MEAN_MOTION_DDOT": 0}, "tle": {"line1": "1 34035U 93036HW  25340.81341384  .00010406  00000+0  25554-2 0  9995", "line2": "2 34035  74.0656   0.2834 0044363   3.1416  47.5785 14.51829858878805"}}, "geometry": {"type": "Point", "coordinates": [168.22817881999632, 34.01095838777471]}}, {"type": "Feature", "properties": {"norad_id": 34036, "name": "COSMOS 2251 DEB", "group": "cosmos-2251-debris", "lat": -64.60668459594896, "lon": 123.07790620235741, "alt_km": 592.2230413634652, "timestamp": "2025-12-07T07:31:36.691512+00:00", "meta": {"OBJECT_NAME": "COSMOS 2251 DEB", "OBJECT_ID": "1993-036HX", "EPOCH": "2025-12-06T10:57:05.599584", "MEAN_MOTION": 14.94205177, "ECCENTRICITY": 0.00140551, "INCLINATION": 74.0196, "RA_OF_ASC_NODE": 161.9409, "ARG_OF_PERICENTER": 196.4684, "MEAN_ANOMALY": 163.6045, "EPHEMERIS_TYPE": 0, "CLASSIFICATION_TYPE": "U", "NORAD_CAT_ID": 34036, "ELEMENT_SET_NO": 999, "REV_AT_EPOCH": 88476, "BSTAR": 0.0069014103, "MEAN_MOTION_DOT": 0.00074878, "MEAN_MOTION_DDOT": 0}, "tle": {"line1": "1 34036U 93036HX  25340.45631481  .00074878  00000+0  69014-2 0  9998", "line2": "2 34036  74.0196 161.9409 0014055 196.4684 163.6045 14.94205177884766"}}, "geometry": {"type": "Point", "coordinates": [123.07790620235741, -64.60668459594896]}}, {"type": "Feature", "properties": {"norad_id": 34037, "name": "COSMOS 2251 DEB", "group": "cosmos-2251-debris", "lat": 70.93679962663985, "lon": 116.21196971149885, "alt_km": 737.5043842377136, "timestamp": "2025-12-07T07:31:36.691522+00:00", "meta": {"OBJECT_NAME": "COSMOS 2251 DEB", "OBJECT_ID": "1993-036HY", "EPOCH": "2025-12-06T16:05:49.312032", "MEAN_MOTION": 14.34640352, "ECCENTRICITY": 0.00522406, "INCLINATION": 74.0526, "RA_OF_ASC_NODE": 61.5499, "ARG_OF_PERICENTER": 113.406, "MEAN_ANOMALY": 247.2599, "EPHEMERIS_TYPE": 0, "CLASSIFICATION_TYPE": "U", "NORAD_CAT_ID": 34037, "ELEMENT_SET_NO": 999, "REV_AT_EPOCH": 87630, "BSTAR": 0.00097852841, "MEAN_MOTION_DOT": 2.785e-05, "MEAN_MOTION_DDOT": 0}, "tle": {"line1": "1 34037U 93036HY  25340.67070963  .00002785  00000+0  97853-3 0  9996", "line2": "2 34037  74.0526  61.5499 0052240 113.4060 247.2599 14.34640352876309"}}, "geometry": {"type": "Point", "coordinates": [116.21196971149885, 70.93679962663985]}}, {"type": "Feature", "properties": {"norad_id": 34040, "name": "COSMOS 2251 DEB", "group": "cosmos-2251-debris", "lat": -4.83706747983501, "lon": -103.77559791574056, "alt_km": 1237.6308870226603, "timestamp": "2025-12-07T07:31:36.691532+00:00", "meta": {"OBJECT_NAME": "COSMOS 2251 DEB", "OBJECT_ID": "1993-036JB", "EPOCH": "2025-12-06T14:51:09.159264", "MEAN_MOTION": 13.68364807, "ECCENTRICITY": 0.03428678, "INCLINATION": 73.9558, "RA_OF_ASC_NODE": 75.9766, "ARG_OF_PERICENTER": 30.612, "MEAN_ANOMALY": 331.4517, "EPHEMERIS_TYPE": 0, "CLASSIFICATION_TYPE": "U", "NORAD_CAT_ID": 34040, "ELEMENT_SET_NO": 999, "REV_AT_EPOCH": 83516, "BSTAR": 0.00059436298, "MEAN_MOTION_DOT": 7.44e-06, "MEAN_MOTION_DDOT": 0}, "tle": {"line1": "1 34040U 93036JB  25340.61885601  .00000744  00000+0  59436-3 0  9995", "line2": "2 34040  73.9558  75.9766 0342867  30.6120 331.4517 13.68364807835165"}}, "geometry": {"type": "Point", "coordinates": [-103.77559791574056, -4.83706747983501]}}, {"type": "Feature", "properties": {"norad_id": 34045, "name": "COSMOS 2251 DEB", "group": "cosmos-2251-debris", "lat": 41.690206980922056, "lon": 125.99281795784358, "alt_km": 774.4899752699184, "timestamp": "2025-12-07T07:31:36.691543+00:00", "meta": {"OBJECT_NAME": "COSMOS 2251 DEB", "OBJECT_ID": "1993-036JG", "EPOCH": "2025-12-06T22:50:27.134016", "MEAN_MOTION": 14.34063706, "ECCENTRICITY": 0.00254588, "INCLINATION": 74.0387, "RA_OF_ASC_NODE": 321.4228, "ARG_OF_PERICENTER": 46.6375, "MEAN_ANOMALY": 21.531, "EPHEMERIS_TYPE": 0, "CLASSIFICATION_TYPE": "U", "NORAD_CAT_ID": 34045, "ELEMENT_SET_NO": 999, "REV_AT_EPOCH": 87950, "BSTAR": 0.00016844591, "MEAN_MOTION_DOT": 4.47e-06, "MEAN_MOTION_DDOT": 0}, "tle": {"line1": "1 34045U 93036JG  25340.95170294  .00000447  00000+0  16845-3 0  9999", "line2": "2 34045  74.0387 321.4228 0025458  46.6375  21.5310 14.34063706879509"}}, "geometry": {"type": "Point", "coordinates": [125.99281795784358, 41.690206980922056]}}, {"type": "Feature", "properties": {"norad_id": 34046, "name": "COSMOS 2251 DEB", "group": "cosmos-2251-debris", "lat": -59.68802615123434, "lon": -130.086644878526, "alt_km": 783.5966269309947, "timestamp": "2025-12-07T07:31:36.691553+00:00", "meta": {"OBJECT_NAME": "COSMOS 2251 DEB", "OBJECT_ID": "1993-036JH", "EPOCH": "2025-12-06T10:48:52.172640", "MEAN_MOTION": 14.46397412, "ECCENTRICITY": 0.0074703, "INCLINATION": 74.0398, "RA_OF_ASC_NODE": 22.2157, "ARG_OF_PERICENTER": 107.5091, "MEAN_ANOMALY": 323.8091, "EPHEMERIS_TYPE": 0, "CLASSIFICATION_TYPE": "U", "NORAD_CAT_ID": 34046, "ELEMENT_SET_NO": 999, "REV_AT_EPOCH": 87735, "BSTAR": 0.0020752421, "MEAN_MOTION_DOT": 7.698e-05, "MEAN_MOTION_DDOT": 0}, "tle": {"line1": "1 34046U 93036JH  25340.45060385  .00007698  00000+0  20752-2 0  9990", "line2": "2 34046  74.0398  22.2157 0074703 107.5091 323.8091 14.46397412877350"}}, "geometry": {"type": "Point", "coordinates": [-130.086644878526, -59.68802615123434]}}, {"type": "Feature", "properties": {"norad_id": 34050, "name": "COSMOS 2251 DEB", "group": "cosmos-2251-debris", "lat": 17.266629385064114, "lon": 24.44746614375818, "alt_km": 843.264509363099, "timestamp": "2025-12-07T07:31:36.691563+00:00", "meta": {"OBJECT_NAME": "COSMOS 2251 DEB", "OBJECT_ID": "1993-036JM", "EPOCH": "2025-12-06T09:09:45.893952", "MEAN_MOTION": 13.96165357, "ECCENTRICITY": 0.02146149, "INCLINATION": 74.0887, "RA_OF_ASC_NODE": 20.9585, "ARG_OF_PERICENTER": 86.9094, "MEAN_ANOMALY": 291.642, "EPHEMERIS_TYPE": 0, "CLASSIFICATION_TYPE": "U", "NORAD_CAT_ID": 34050, "ELEMENT_SET_NO": 999, "REV_AT_EPOCH": 85343, "BSTAR": 0.00092583138, "MEAN_MOTION_DOT": 1.522e-05, "MEAN_MOTION_DDOT": 0}, "tle": {"line1": "1 34050U 93036JM  25340.38178118  .00001522  00000+0  92583-3 0  9993", "line2": "2 34050  74.0887  20.9585 0214614  86.9094 291.6420 13.96165357853434"}}, "geometry": {"type": "Point", "coordinates": [24.44746614375818, 17.266629385064114]}}, {"type": "Feature", "properties": {"norad_id": 34053, "name": "COSMOS 2251 DEB", "group": "cosmos-2251-debris", "lat": -12.459588872758188, "lon": 74.58664977896946, "alt_km": 1355.3953969991326, "timestamp": "2025-12-07T07:31:36.691573+00:00", "meta": {"OBJECT_NAME": "COSMOS 2251 DEB", "OBJECT_ID": "1993-036JQ", "EPOCH": "2025-12-06T19:55:24.201408", "MEAN_MOTION": 13.49147066, "ECCENTRICITY": 0.04218713, "INCLINATION": 73.8444, "RA_OF_ASC_NODE": 251.6934, "ARG_OF_PERICENTER": 41.2312, "MEAN_ANOMALY": 321.9855, "EPHEMERIS_TYPE": 0, "CLASSIFICATION_TYPE": "U", "NORAD_CAT_ID": 34053, "ELEMENT_SET_NO": 999, "REV_AT_EPOCH": 82604, "BSTAR": 0.0013589644, "MEAN_MOTION_DOT": 1.459e-05, "MEAN_MOTION_DDOT": 0}, "tle": {"line1": "1 34053U 93036JQ  25340.83014122  .00001459  00000+0  13590-2 0  9999", "line2": "2 34053  73.8444 251.6934 0421871  41.2312 321.9855 13.49147066826047"}}, "geometry": {"type": "Point", "coordinates": [74.58664977896946, -12.459588872758188]}}, {"type": "Feature", "properties": {"norad_id": 34056, "name": "COSMOS 2251 DEB", "group": "cosmos-2251-debris", "lat": 46.509074596087274, "lon": 103.61289837942375, "alt_km": 812.2288255840704, "timestamp": "2025-12-07T07:31:36.691583+00:00", "meta": {"OBJECT_NAME": "COSMOS 2251 DEB", "OBJECT_ID": "1993-036JT", "EPOCH": "2025-12-06T18:29:29.778720", "MEAN_MOTION": 14.20516093, "ECCENTRICITY": 0.01243716, "INCLINATION": 74.0602, "RA_OF_ASC_NODE": 87.0505, "ARG_OF_PERICENTER": 136.4355, "MEAN_ANOMALY": 17.6198, "EPHEMERIS_TYPE": 0, "CLASSIFICATION_TYPE": "U", "NORAD_CAT_ID": 34056, "ELEMENT_SET_NO": 999, "REV_AT_EPOCH": 86326, "BSTAR": 0.0020245983, "MEAN_MOTION_DOT": 4.679e-05, "MEAN_MOTION_DDOT": 0}, "tle": {"line1": "1 34056U 93036JT  25340.77048355  .00004679  00000+0  20246-2 0  9993", "line2": "2 34056  74.0602  87.0505 0124371 136.4355  17.6198 14.20516093863267"}}, "geometry": {"type": "Point", "coordinates": [103.61289837942375, 46.509074596087274]}}]}